[{"OBJECT_NAME":"STARLINK-36471","OBJECT_ID":"2026-002V","EPOCH":"2026-03-09T02:51:22.155552","MEAN_MOTION":15.2758585,"ECCENTRICITY":0.00013932,"INCLINATION":43.0021,"RA_OF_ASC_NODE":328.3142,"ARG_OF_PERICENTER":277.6642,"MEAN_ANOMALY":82.4051,"EPHEMERIS_TYPE":0,"CLASSIFICATION_TYPE":"U","NORAD_CAT_ID":67324,"ELEMENT_SET_NO":999,"REV_AT_EPOCH":1099,"BSTAR":0.0010515395,"MEAN_MOTION_DOT":0.00028792,"MEAN_MOTION_DDOT":0},{"OBJECT_NAME":"CZ-2D DEB","OBJECT_ID":"2010-027G","EPOCH":"2026-03-07T07:54:25.300800","MEAN_MOTION":15.18267572,"ECCENTRICITY":0.0071051,"INCLINATION":97.484,"RA_OF_ASC_NODE":105.3106,"ARG_OF_PERICENTER":258.5099,"MEAN_ANOMALY":100.8151,"EPHEMERIS_TYPE":0,"CLASSIFICATION_TYPE":"U","NORAD_CAT_ID":38302,"ELEMENT_SET_NO":999,"REV_AT_EPOCH":83107,"BSTAR":0.0021438,"MEAN_MOTION_DOT":0.00047105,"MEAN_MOTION_DDOT":0}]
